NORAD_CAT_ID,OBJECT_NAME,OBJECT_TYPE,EPOCH,MEAN_MOTION,ECCENTRICITY,INCLINATION,RA_OF_ASC_NODE,ARG_OF_PERICENTER,MEAN_ANOMALY,BSTAR,MEAN_MOTION_DOT,MEAN_MOTION_DDOT,TLE_LINE0,TLE_LINE1,TLE_LINE2,SEMIMAJOR_AXIS,PERIOD,APOGEE,PERIGEE,DECAYED
53858.0,STARLINK-4798,PAYLOAD,2022-12-23 00:00:00,15.42093944,0.000165,53.2171,150.3043,43.6547,190.3373,-0.028857,-0.01144778,0.0,0 STARLINK-4798,1 53858U 22114AS  22357.00001157 -.01144778  00000-0 -28857-1 0  9997,2 53858  53.2171 150.3043 0001650  43.6547 190.3373 15.42093944  1308,6818.066999999999,93.38,441.057,438.807,0.0
53858.0,STARLINK-4798,PAYLOAD,2022-12-23 08:00:01,15.41294341,0.0001776999999999,53.2167,148.7297,33.878,251.1594,-0.030158,-0.01162989,0.0,0 STARLINK-4798,1 53858U 22114AS  22357.33334491 -.01162989  00000-0 -30158-1 0  9994,2 53858  53.2167 148.7297 0001777  33.8780 251.1594 15.41294341 15551,6820.425,93.428,443.502,441.078,0.0
53858.0,STARLINK-4798,PAYLOAD,2022-12-23 14:00:01,15.40679527,0.0001848,53.2169,147.5513,37.6202,195.067,-0.030602,-0.01156708,0.0,0 STARLINK-4798,1 53858U 22114AS  22357.58334491 -.01156708  00000-0 -30602-1 0  9997,2 53858  53.2169 147.5513 0001848  37.6202 195.0670 15.40679527  1302,6822.24,93.465,445.365,442.844,0.0
53858.0,STARLINK-4798,PAYLOAD,2022-12-23 22:00:01,15.39875703,0.0001685,53.2166,145.9825,31.3867,250.7004,-0.031833,-0.01170142,0.0,0 STARLINK-4798,1 53858U 22114AS  22357.91668981 -.01170142  00000-0 -31833-1 0  9993,2 53858  53.2166 145.9825 0001685  31.3867 250.7004 15.39875703  1306,6824.614000000001,93.514,447.628,445.329,0.0
53858.0,STARLINK-4798,PAYLOAD,2022-12-24 10:00:00,15.38633204,0.0001973,53.2176,143.6289,35.0912,139.1213,-0.032208,-0.01139245,0.0,0 STARLINK-4798,1 53858U 22114AS  22358.41667824 -.01139245  00000-0 -32208-1 0  9990,2 53858  53.2176 143.6289 0001973  35.0912 139.1213 15.38633204 15728,6828.2869999999975,93.59,451.499,448.805,0.0
53858.0,STARLINK-4798,PAYLOAD,2022-12-24 14:00:01,15.3824432,0.0001541,53.217,142.847,7.9947,9.7796,-0.033422,-0.01164621,0.0,0 STARLINK-4798,1 53858U 22114AS  22358.58334491 -.01164621  00000-0 -33422-1 0  9994,2 53858  53.2170 142.8470 0001541   7.9947   9.7796 15.38244320  1306,6829.438,93.613,452.355,450.25,0.0
53858.0,STARLINK-4798,PAYLOAD,2022-12-24 22:00:00,15.37429014,0.0001682,53.2166,141.2838,37.9683,26.2137,-0.034257,-0.01162513,0.0,0 STARLINK-4798,1 53858U 22114AS  22358.91667824 -.01162513  00000-0 -34257-1 0  9995,2 53858  53.2166 141.2838 0001682  37.9683  26.2137 15.37429014  1305,6831.852,93.663,454.866,452.568,0.0
53858.0,STARLINK-4798,PAYLOAD,2022-12-25 08:00:01,15.3639574,0.0001636999999999,53.2173,139.3288,47.9517,162.8735,-0.034703,-0.01140736,0.0,0 STARLINK-4798,1 53858U 22114AS  22359.33334491 -.01140736  00000-0 -34703-1 0  9992,2 53858  53.2173 139.3288 0001637  47.9517 162.8735 15.36395740 15861,6834.915,93.726,457.899,455.661,0.0
53858.0,STARLINK-4798,PAYLOAD,2022-12-25 14:00:01,15.35790683,0.0001585999999999,53.2168,138.16,53.8518,100.2171,-0.0356089999999999,-0.01147193,0.0,0 STARLINK-4798,1 53858U 22114AS  22359.58334491 -.01147193  00000-0 -35609-1 0  9999,2 53858  53.2168 138.1600 0001586  53.8518 100.2171 15.35790683  1308,6836.71,93.763,459.659,457.491,0.0
53858.0,STARLINK-4798,PAYLOAD,2022-12-26 00:00:00,15.34769221,0.0001506,53.2169,136.2124,44.8769,253.3841,-0.036624,-0.01142172,0.0,0 STARLINK-4798,1 53858U 22114AS  22360.00001157 -.01142172  00000-0 -36624-1 0  9998,2 53858  53.2169 136.2124 0001506  44.8769 253.3841 15.34769221  1306,6839.743,93.825,462.638,460.578,0.0
53858.0,STARLINK-4798,PAYLOAD,2022-12-26 06:00:00,15.34156799,0.0001629999999999,53.217,135.0441,43.6852,196.3573,-0.037195,-0.01137886,0.0,0 STARLINK-4798,1 53858U 22114AS  22360.25001157 -.01137886  00000-0 -37195-1 0  9995,2 53858  53.2170 135.0441 0001630  43.6852 196.3573 15.34156799 16006,6841.563,93.863,464.543,462.31300000000016,0.0
53858.0,STARLINK-4798,PAYLOAD,2022-12-26 14:00:01,15.33353145,0.0001443,53.2169,133.4904,58.1862,223.36900000000003,-0.038659,-0.01151414,0.0,0 STARLINK-4798,1 53858U 22114AS  22360.58334491 -.01151414  00000-0 -38659-1 0  9990,2 53858  53.2169 133.4904 0001443  58.1862 223.3690 15.33353145  1305,6843.953,93.912,466.806,464.831,0.0
53858.0,STARLINK-4798,PAYLOAD,2022-12-27 00:00:00,15.32326358,0.0001604,53.217,131.5498,42.3309,19.752,-0.039457,-0.01138787,0.0,0 STARLINK-4798,1 53858U 22114AS  22361.00001157 -.01138787  00000-0 -39457-1 0  9993,2 53858  53.2170 131.5498 0001604  42.3309  19.7520 15.32326358  1308,6847.01,93.975,469.974,467.777,0.0
53858.0,STARLINK-4798,PAYLOAD,2022-12-27 08:00:01,15.315116,0.0001764999999999,53.2174,129.998,38.7025,62.7634,-0.040406,-0.01136843,0.0,0 STARLINK-4798,1 53858U 22114AS  22361.33335648 -.01136843  00000-0 -40406-1 0  9991,2 53858  53.2174 129.9980 0001765  38.7025  62.7634 15.31511600 16171,6849.439,94.025,472.513,470.095,0.0
53858.0,STARLINK-4798,PAYLOAD,2022-12-27 14:00:01,15.30907749,0.0001518,53.217,128.8381,49.3879,350.8573,-0.041555,-0.01146264,0.0,0 STARLINK-4798,1 53858U 22114AS  22361.58334491 -.01146264  00000-0 -41555-1 0  9997,2 53858  53.2170 128.8381 0001518  49.3879 350.8573 15.30907749  1305,6851.24,94.062,474.145,472.065,0.0
53858.0,STARLINK-4798,PAYLOAD,2022-12-27 22:00:00,15.30093485,0.0001695,53.2166,127.2917,40.1472,37.7045,-0.042547,-0.01144382,0.0,0 STARLINK-4798,1 53858U 22114AS  22361.91667824 -.01144382  00000-0 -42547-1 0  9994,2 53858  53.2166 127.2917 0001695  40.1472  37.7045 15.30093485  1300,6853.67,94.112,476.697,474.37300000000016,0.0
53858.0,STARLINK-4798,PAYLOAD,2022-12-28 08:00:01,15.29070686,0.0001761999999999,53.2174,125.3588,44.3965,169.0922,-0.043577,-0.01136233,0.0,0 STARLINK-4798,1 53858U 22114AS  22362.33334491 -.01136233  00000-0 -43577-1 0  9992,2 53858  53.2174 125.3588 0001762  44.3965 169.0922 15.29070686 16327,6856.726,94.175,479.799,477.383,0.0
53858.0,STARLINK-4798,PAYLOAD,2022-12-28 14:00:01,15.28463963,0.0001649,53.217,124.2031,47.1692,102.9642,-0.04467,-0.01142473,0.0,0 STARLINK-4798,1 53858U 22114AS  22362.58334491 -.01142473  00000-0 -44670-1 0  9997,2 53858  53.2170 124.2031 0001649  47.1692 102.9642 15.28463963  1306,6858.54,94.212,481.536,479.274,0.0
53858.0,STARLINK-4798,PAYLOAD,2022-12-28 22:00:00,15.27699269,0.0001841999999999,53.2165,122.6623,38.387,146.3953,-0.048617,-0.01224908,0.0,0 STARLINK-4798,1 53858U 22114AS  22362.91667824 -.01224908  00000-0 -48617-1 0  9992,2 53858  53.2165 122.6623 0001842  38.3870 146.3953 15.27699269  1300,6860.829000000002,94.259,483.958,481.43,0.0
53858.0,STARLINK-4798,PAYLOAD,2022-12-29 08:00:01,15.26627769,0.000171,53.2173,120.7367,35.8012,280.9744,-0.046835,-0.01133155,0.0,0 STARLINK-4798,1 53858U 22114AS  22363.33334491 -.01133155  00000-0 -46835-1 0  9993,2 53858  53.2173 120.7367 0001710  35.8012 280.9744 15.26627769 16479,6864.0390000000025,94.326,487.078,484.73,0.0
53858.0,STARLINK-4798,PAYLOAD,2022-12-29 14:00:01,15.2602671,0.000158,53.217,119.5852,56.2591,194.9581,-0.048319,-0.01161939,0.0,0 STARLINK-4798,1 53858U 22114AS  22363.58334491 -.01161939  00000-0 -48319-1 0  9990,2 53858  53.2170 119.5852 0001580  56.2591 194.9581 15.26026710  1303,6865.840999999999,94.363,488.791,486.621,0.0
53858.0,STARLINK-4798,PAYLOAD,2022-12-30 08:00:01,15.24185483,0.0001889999999999,53.2173,116.1318,32.1846,19.0774,-0.050358,-0.01146798,0.0,0 STARLINK-4798,1 53858U 22114AS  22364.33334491 -.01146798  00000-0 -50358-1 0  9996,2 53858  53.2173 116.1318 0001890  32.1846  19.0774 15.24185483 16630,6871.369000000002,94.477,494.533,491.936,0.0
53858.0,STARLINK-4798,PAYLOAD,2022-12-30 14:00:01,15.23585829,0.0001546,53.217,114.9846,49.9271,293.5758,-0.052058,-0.01162975,0.0,0 STARLINK-4798,1 53858U 22114AS  22364.58334491 -.01162975  00000-0 -52058-1 0  9997,2 53858  53.2170 114.9846 0001546  49.9271 293.5758 15.23585829  1301,6873.172,94.514,496.1,493.975,0.0
53858.0,STARLINK-4798,PAYLOAD,2022-12-31 08:00:01,15.21744769,0.0001942,53.2175,111.544,38.3473,98.5997,-0.054186,-0.01147349,0.0,0 STARLINK-4798,1 53858U 22114AS  22365.33334491 -.01147349  00000-0 -54186-1 0  9993,2 53858  53.2175 111.5440 0001942  38.3473  98.5997 15.21744769 16789,6878.715,94.628,501.916,499.244,0.0
53858.0,STARLINK-4798,PAYLOAD,2022-12-31 14:00:01,15.21141033,0.0001656,53.2171,110.4011,42.4455,24.5439,-0.055696,-0.01157561,0.0,0 STARLINK-4798,1 53858U 22114AS  22365.58334491 -.01157561  00000-0 -55696-1 0  9994,2 53858  53.2171 110.4011 0001656  42.4455  24.5439 15.21141033  1302,6880.535,94.666,503.539,501.26,0.0
53858.0,STARLINK-4798,PAYLOAD,2022-12-31 22:00:00,15.20332001,0.0001956999999999,53.2168,108.8768,36.855,56.0049,-0.057373,-0.01163901,0.0,0 STARLINK-4798,1 53858U 22114AS  22365.91667824 -.01163901  00000-0 -57373-1 0  9999,2 53858  53.2168 108.8768 0001957  36.8550  56.0049 15.20332001  1308,6882.975,94.716,506.187,503.49300000000005,0.0
53858.0,STARLINK-4798,PAYLOAD,2023-01-01 10:00:00,15.19101008,0.0001881,53.2174,106.5938,33.7051,276.1351,-0.058627,-0.01148527,0.0,0 STARLINK-4798,1 53858U 22114AS  23001.41667824 -.01148527  00000-0 -58627-1 0  9992,2 53858  53.2174 106.5938 0001881  33.7051 276.1351 15.19101008 16943,6886.693,94.793,509.854,507.263,0.0
53858.0,STARLINK-4798,PAYLOAD,2023-01-01 14:00:01,15.18723276,0.000192,53.2172,105.8349,42.0994,99.5628,-0.061603,-0.01190062,0.0,0 STARLINK-4798,1 53858U 22114AS  23001.58334491 -.01190062  00000-0 -61603-1 0  9990,2 53858  53.2172 105.8349 0001920  42.0994  99.5628 15.18723276  1306,6887.835,94.816,511.023,508.378,0.0
53858.0,STARLINK-4798,PAYLOAD,2023-01-02 00:00:00,15.17676914,0.0001861,53.2174,103.9361,36.1945,224.0034,-0.061133,-0.01149068,0.0,0 STARLINK-4798,1 53858U 22114AS  23002.00001157 -.01149068  00000-0 -61133-1 0  9996,2 53858  53.2174 103.9361 0001861  36.1945 224.0034 15.17676914  1306,6891.001,94.882,514.148,511.583,0.0
